[{"OBJECT_NAME":"STARLINK-3533","OBJECT_ID":"2022-016B","EPOCH":"2026-03-09T22:27:09.819648","MEAN_MOTION":15.08833144,"ECCENTRICITY":0.00016026,"INCLINATION":53.22,"RA_OF_ASC_NODE":328.0255,"ARG_OF_PERICENTER":100.2594,"MEAN_ANOMALY":259.8579,"EPHEMERIS_TYPE":0,"CLASSIFICATION_TYPE":"U","NORAD_CAT_ID":51715,"ELEMENT_SET_NO":999,"REV_AT_EPOCH":22459,"BSTAR":-5.5116975e-5,"MEAN_MOTION_DOT":-1.165e-5,"MEAN_MOTION_DDOT":0},{"OBJECT_NAME":"POSAT-2","OBJECT_ID":"2025-009DR","EPOCH":"2026-03-09T23:15:20.314368","MEAN_MOTION":15.10404492,"ECCENTRICITY":0.00077103,"INCLINATION":97.4906,"RA_OF_ASC_NODE":146.0095,"ARG_OF_PERICENTER":126.4226,"MEAN_ANOMALY":233.7715,"EPHEMERIS_TYPE":0,"CLASSIFICATION_TYPE":"U","NORAD_CAT_ID":63488,"ELEMENT_SET_NO":999,"REV_AT_EPOCH":5165,"BSTAR":0.0010942248,"MEAN_MOTION_DOT":0.00017957,"MEAN_MOTION_DDOT":0}]
